IXPE                    
1 49954U 21121A   24236.25001157  .00011421  00000+0  84158-3 0  9993
2 49954   0.2287 255.4789 0009375 194.3978 138.6629 14.99312000147980
